[{"OBJECT_NAME":"FLOCK 4G-23","OBJECT_ID":"2025-009AQ","EPOCH":"2026-04-25T19:22:17.532768","MEAN_MOTION":15.28694594,"ECCENTRICITY":0.00028069,"INCLINATION":97.3943,"RA_OF_ASC_NODE":197.6765,"ARG_OF_PERICENTER":136.5197,"MEAN_ANOMALY":223.6265,"EPHEMERIS_TYPE":0,"CLASSIFICATION_TYPE":"U","NORAD_CAT_ID":62647,"ELEMENT_SET_NO":999,"REV_AT_EPOCH":7091,"BSTAR":0.0013752467,"MEAN_MOTION_DOT":0.00038454,"MEAN_MOTION_DDOT":0},{"OBJECT_NAME":"FLOCK 4G-34","OBJECT_ID":"2025-009AT","EPOCH":"2026-04-25T18:15:37.384704","MEAN_MOTION":15.28202208,"ECCENTRICITY":0.00034152,"INCLINATION":97.3966,"RA_OF_ASC_NODE":197.6866,"ARG_OF_PERICENTER":121.9003,"MEAN_ANOMALY":238.2569,"EPHEMERIS_TYPE":0,"CLASSIFICATION_TYPE":"U","NORAD_CAT_ID":62650,"ELEMENT_SET_NO":999,"REV_AT_EPOCH":7090,"BSTAR":0.00040082702,"MEAN_MOTION_DOT":0.00010949,"MEAN_MOTION_DDOT":0},{"OBJECT_NAME":"FLOCK 4G-21","OBJECT_ID":"2025-009AU","EPOCH":"2026-04-25T18:33:14.508576","MEAN_MOTION":15.29527975,"ECCENTRICITY":0.00032448,"INCLINATION":97.3994,"RA_OF_ASC_NODE":198.4553,"ARG_OF_PERICENTER":124.5603,"MEAN_ANOMALY":235.5944,"EPHEMERIS_TYPE":0,"CLASSIFICATION_TYPE":"U","NORAD_CAT_ID":62651,"ELEMENT_SET_NO":999,"REV_AT_EPOCH":7094,"BSTAR":0.00041422829,"MEAN_MOTION_DOT":0.00011788,"MEAN_MOTION_DDOT":0},{"OBJECT_NAME":"FLOCK 4G-31","OBJECT_ID":"2025-009AV","EPOCH":"2026-04-25T18:44:24.107712","MEAN_MOTION":15.28039568,"ECCENTRICITY":0.00030283,"INCLINATION":97.3971,"RA_OF_ASC_NODE":197.6954,"ARG_OF_PERICENTER":125.0877,"MEAN_ANOMALY":235.0647,"EPHEMERIS_TYPE":0,"CLASSIFICATION_TYPE":"U","NORAD_CAT_ID":62652,"ELEMENT_SET_NO":999,"REV_AT_EPOCH":7090,"BSTAR":0.00040547403,"MEAN_MOTION_DOT":0.00011022,"MEAN_MOTION_DDOT":0},{"OBJECT_NAME":"FLOCK 4G-4","OBJECT_ID":"2025-009BC","EPOCH":"2026-04-25T19:02:23.366400","MEAN_MOTION":15.27803809,"ECCENTRICITY":0.00038345,"INCLINATION":97.3954,"RA_OF_ASC_NODE":197.4473,"ARG_OF_PERICENTER":132.3387,"MEAN_ANOMALY":227.8177,"EPHEMERIS_TYPE":0,"CLASSIFICATION_TYPE":"U","NORAD_CAT_ID":62659,"ELEMENT_SET_NO":999,"REV_AT_EPOCH":12850,"BSTAR":0.00037185302,"MEAN_MOTION_DOT":0.00010029,"MEAN_MOTION_DDOT":0},{"OBJECT_NAME":"FLOCK 4G-6","OBJECT_ID":"2025-009BD","EPOCH":"2026-04-25T19:03:51.394176","MEAN_MOTION":15.28559673,"ECCENTRICITY":0.00045915,"INCLINATION":97.3945,"RA_OF_ASC_NODE":197.5327,"ARG_OF_PERICENTER":142.8686,"MEAN_ANOMALY":217.2873,"EPHEMERIS_TYPE":0,"CLASSIFICATION_TYPE":"U","NORAD_CAT_ID":62660,"ELEMENT_SET_NO":999,"REV_AT_EPOCH":12849,"BSTAR":0.00036930061,"MEAN_MOTION_DOT":0.00010193,"MEAN_MOTION_DDOT":0},{"OBJECT_NAME":"FLOCK 4G-2","OBJECT_ID":"2025-009BE","EPOCH":"2026-04-25T17:43:09.437088","MEAN_MOTION":15.28807005,"ECCENTRICITY":0.00054232,"INCLINATION":97.4009,"RA_OF_ASC_NODE":198.0115,"ARG_OF_PERICENTER":139.6457,"MEAN_ANOMALY":220.5186,"EPHEMERIS_TYPE":0,"CLASSIFICATION_TYPE":"U","NORAD_CAT_ID":62661,"ELEMENT_SET_NO":999,"REV_AT_EPOCH":12851,"BSTAR":0.0003834621,"MEAN_MOTION_DOT":0.00010669,"MEAN_MOTION_DDOT":0},{"OBJECT_NAME":"FLOCK 4G-5","OBJECT_ID":"2025-009BG","EPOCH":"2026-04-25T18:25:30.735840","MEAN_MOTION":15.29570052,"ECCENTRICITY":0.00048217,"INCLINATION":97.4024,"RA_OF_ASC_NODE":198.3418,"ARG_OF_PERICENTER":125.001,"MEAN_ANOMALY":235.1683,"EPHEMERIS_TYPE":0,"CLASSIFICATION_TYPE":"U","NORAD_CAT_ID":62663,"ELEMENT_SET_NO":999,"REV_AT_EPOCH":7092,"BSTAR":0.00035464483,"MEAN_MOTION_DOT":0.00010094,"MEAN_MOTION_DDOT":0},{"OBJECT_NAME":"FLOCK 4G-1","OBJECT_ID":"2025-009BK","EPOCH":"2026-04-25T18:40:36.447168","MEAN_MOTION":15.28548669,"ECCENTRICITY":0.00056687,"INCLINATION":97.4024,"RA_OF_ASC_NODE":198.0388,"ARG_OF_PERICENTER":138.1839,"MEAN_ANOMALY":221.9835,"EPHEMERIS_TYPE":0,"CLASSIFICATION_TYPE":"U","NORAD_CAT_ID":62666,"ELEMENT_SET_NO":999,"REV_AT_EPOCH":7090,"BSTAR":0.00039472783,"MEAN_MOTION_DOT":0.00010899,"MEAN_MOTION_DDOT":0},{"OBJECT_NAME":"FLOCK 4G-14","OBJECT_ID":"2025-009BL","EPOCH":"2026-04-25T18:53:36.360960","MEAN_MOTION":15.281762,"ECCENTRICITY":0.00059203,"INCLINATION":97.4026,"RA_OF_ASC_NODE":197.8939,"ARG_OF_PERICENTER":133.0523,"MEAN_ANOMALY":227.1213,"EPHEMERIS_TYPE":0,"CLASSIFICATION_TYPE":"U","NORAD_CAT_ID":62667,"ELEMENT_SET_NO":999,"REV_AT_EPOCH":7089,"BSTAR":0.00036859897,"MEAN_MOTION_DOT":0.00010057,"MEAN_MOTION_DDOT":0},{"OBJECT_NAME":"FLOCK 4G-10","OBJECT_ID":"2025-009BP","EPOCH":"2026-04-25T20:48:57.362976","MEAN_MOTION":15.28220237,"ECCENTRICITY":0.00056627,"INCLINATION":97.3928,"RA_OF_ASC_NODE":197.3689,"ARG_OF_PERICENTER":147.1717,"MEAN_ANOMALY":212.9876,"EPHEMERIS_TYPE":0,"CLASSIFICATION_TYPE":"U","NORAD_CAT_ID":62670,"ELEMENT_SET_NO":999,"REV_AT_EPOCH":12854,"BSTAR":0.00042796731,"MEAN_MOTION_DOT":0.00011706,"MEAN_MOTION_DDOT":0},{"OBJECT_NAME":"FLOCK 4G-36","OBJECT_ID":"2025-009BU","EPOCH":"2026-04-25T19:09:22.211136","MEAN_MOTION":15.28318127,"ECCENTRICITY":0.00060741,"INCLINATION":97.4016,"RA_OF_ASC_NODE":197.8251,"ARG_OF_PERICENTER":137.3786,"MEAN_ANOMALY":222.7926,"EPHEMERIS_TYPE":0,"CLASSIFICATION_TYPE":"U","NORAD_CAT_ID":62675,"ELEMENT_SET_NO":999,"REV_AT_EPOCH":7089,"BSTAR":0.00040582926,"MEAN_MOTION_DOT":0.0001113,"MEAN_MOTION_DDOT":0},{"OBJECT_NAME":"FLOCK 4G-15","OBJECT_ID":"2025-009BX","EPOCH":"2026-04-25T22:31:49.855872","MEAN_MOTION":15.28332703,"ECCENTRICITY":0.00062516,"INCLINATION":97.4021,"RA_OF_ASC_NODE":198.099,"ARG_OF_PERICENTER":134.3042,"MEAN_ANOMALY":225.8711,"EPHEMERIS_TYPE":0,"CLASSIFICATION_TYPE":"U","NORAD_CAT_ID":62678,"ELEMENT_SET_NO":999,"REV_AT_EPOCH":12856,"BSTAR":0.00041424545,"MEAN_MOTION_DOT":0.00011368,"MEAN_MOTION_DDOT":0},{"OBJECT_NAME":"FLOCK 4G-30","OBJECT_ID":"2025-009BY","EPOCH":"2026-04-25T19:09:47.429568","MEAN_MOTION":15.28526712,"ECCENTRICITY":0.00055475,"INCLINATION":97.3927,"RA_OF_ASC_NODE":197.3222,"ARG_OF_PERICENTER":150.1141,"MEAN_ANOMALY":210.0417,"EPHEMERIS_TYPE":0,"CLASSIFICATION_TYPE":"U","NORAD_CAT_ID":62679,"ELEMENT_SET_NO":999,"REV_AT_EPOCH":12853,"BSTAR":0.0013846755,"MEAN_MOTION_DOT":0.00038532,"MEAN_MOTION_DDOT":0},{"OBJECT_NAME":"FLOCK 4G-18","OBJECT_ID":"2025-009BZ","EPOCH":"2026-04-25T22:28:37.281504","MEAN_MOTION":15.28308673,"ECCENTRICITY":0.00064905,"INCLINATION":97.4015,"RA_OF_ASC_NODE":197.9255,"ARG_OF_PERICENTER":144.7419,"MEAN_ANOMALY":215.4251,"EPHEMERIS_TYPE":0,"CLASSIFICATION_TYPE":"U","NORAD_CAT_ID":62680,"ELEMENT_SET_NO":999,"REV_AT_EPOCH":12855,"BSTAR":0.00044092417,"MEAN_MOTION_DOT":0.00012098,"MEAN_MOTION_DDOT":0},{"OBJECT_NAME":"FLOCK 4G-17","OBJECT_ID":"2025-009CA","EPOCH":"2026-04-25T20:13:40.947456","MEAN_MOTION":15.28467736,"ECCENTRICITY":0.00058353,"INCLINATION":97.3928,"RA_OF_ASC_NODE":197.5522,"ARG_OF_PERICENTER":147.8569,"MEAN_ANOMALY":212.3027,"EPHEMERIS_TYPE":0,"CLASSIFICATION_TYPE":"U","NORAD_CAT_ID":62681,"ELEMENT_SET_NO":999,"REV_AT_EPOCH":12855,"BSTAR":0.00048267235,"MEAN_MOTION_DOT":0.00013315,"MEAN_MOTION_DDOT":0}]
